[{"OBJECT_NAME":"KUIPER-00083","OBJECT_ID":"2025-151P","EPOCH":"2026-03-09T19:59:28.461120","MEAN_MOTION":14.79940147,"ECCENTRICITY":8.677e-5,"INCLINATION":51.9009,"RA_OF_ASC_NODE":294.9578,"ARG_OF_PERICENTER":102.892,"MEAN_ANOMALY":257.2139,"EPHEMERIS_TYPE":0,"CLASSIFICATION_TYPE":"U","NORAD_CAT_ID":64829,"ELEMENT_SET_NO":999,"REV_AT_EPOCH":3658,"BSTAR":0.00062657411,"MEAN_MOTION_DOT":4.559e-5,"MEAN_MOTION_DDOT":0},{"OBJECT_NAME":"CZ-4C R\/B","OBJECT_ID":"2022-106B","EPOCH":"2026-03-09T16:53:51.363744","MEAN_MOTION":15.02433181,"ECCENTRICITY":0.01103472,"INCLINATION":98.0511,"RA_OF_ASC_NODE":147.9459,"ARG_OF_PERICENTER":124.4586,"MEAN_ANOMALY":236.7124,"EPHEMERIS_TYPE":0,"CLASSIFICATION_TYPE":"U","NORAD_CAT_ID":53699,"ELEMENT_SET_NO":999,"REV_AT_EPOCH":19198,"BSTAR":0.00037068081,"MEAN_MOTION_DOT":5.536e-5,"MEAN_MOTION_DDOT":0}]
